satname,norad_id,inclination_deg,eccentricity,mean_motion_rev_per_day,perigee_km,apogee_km,l1,l2
STARLINK-1540,46051,53.159,0.0001264,15.30192556,474.371029440631,476.10356246264746,1 46051U 20055AA  26111.85701034  .00005095  00000+0  18407-3 0  9998,2 46051  53.1590 273.3351 0001264  74.1809 285.9331 15.30192556315699
STARLINK-1541,46052,53.1592,0.0001823,15.55849646,398.4483405878418,400.9195341015975,1 46052U 20055AB  26112.91668980  .01409312  00000+0  17935-1 0  9993,2 46052  53.1592 266.7774 0001823  68.3737 199.5328 15.55849646  5860
STARLINK-1543,46053,53.1599,9.67e-05,15.3167513,470.1518388301447,471.4764259791518,1 46053U 20055AC  26112.91668980  .00047773  00000+0  15426-2 0  9996,2 46053  53.1599 268.4633 0000967  66.3859  46.5277 15.31675130  5900
STARLINK-1548,46054,53.1593,0.0001102,15.30207647,474.43700006887866,475.9474738327017,1 46054U 20055AD  26112.77456375  .00007361  00000+0  26035-3 0  9992,2 46054  53.1593 269.1409 0001102  78.7022 281.4102 15.30207647315820
STARLINK-1554,46055,53.1619,0.0001371,15.31718301,469.74646788341397,471.6244149968561,1 46055U 20055AE  26112.82632175  .00003594  00000+0  12746-3 0  9991,2 46055  53.1619 268.9009 0001371  74.3201 285.7951 15.31718301315837
STARLINK-1564,46058,53.1598,0.0001139,15.30208318,474.4096395112638,475.9708274550503,1 46058U 20055AH  26112.70510831  .00002899  00000+0  10993-3 0  9994,2 46058  53.1598 269.9219 0001139  72.9178 287.1948 15.30208318315809
STARLINK-1570,46059,53.1592,0.0001124,15.31721406,469.90637919457185,471.4459923987388,1 46059U 20055AJ  26112.72377191  .00005085  00000+0  17540-3 0  9992,2 46059  53.1592 269.2606 0001124  75.2006 284.9120 15.31721406315779
STARLINK-1572,46060,53.1585,0.0001393,15.3016143,474.37554692025424,476.28492289189853,1 46060U 20055AK  26111.83704101 -.00005648  00000+0 -17891-3 0  9996,2 46060  53.1585 273.7006 0001393  77.5540 282.5616 15.30161430315647
STARLINK-1573,46061,53.159,0.0001339,15.31716434,469.7739486947057,471.60806483491706,1 46061U 20055AL  26111.86153878  .00006548  00000+0  22246-3 0  9997,2 46061  53.1590 273.2466 0001339  86.4813 273.6341 15.31716434315682
STARLINK-1577,46063,53.1618,7.25e-05,15.31717583,470.19104193681324,471.18412150116274,1 46063U 20055AN  26111.82423466  .00004108  00000+0  14400-3 0  9991,2 46063  53.1618 273.4088 0000725  85.0828 275.0256 15.31717583315672
STARLINK-1583,46064,53.1591,0.0001227,15.30213214,474.33471362321416,476.01651653895533,1 46064U 20055AP  26112.71556159  .00004532  00000+0  16498-3 0  9997,2 46064  53.1591 269.3695 0001227  88.0268 272.0874 15.30213214315809
STARLINK-1536,46070,53.1485,6.07e-05,15.29343037,477.3588473533582,478.1911550703053,1 46070U 20055AV  26112.91668980  .00030756  00000+0  10742-2 0  9994,2 46070  53.1485 256.1030 0000607 105.1150 137.1821 15.29343037  5856
STARLINK-1542,46073,53.077,0.0001135,15.12568362,527.5868044417657,529.1545816880925,1 46073U 20055AY  26112.91668980  .00053193  00000+0  30091-2 0  9996,2 46073  53.0770 257.9737 0001135 119.0827 225.8714 15.12568362  5780
STARLINK-1549,46074,53.0499,3.24e-05,15.25996965,487.57091350110386,488.015825789058,1 46074U 20055AZ  26112.68069088  .00025852  00000+0  10021-2 0  9997,2 46074  53.0499 256.6608 0000324 348.7215  11.3775 15.25996965315960
STARLINK-1551,46075,53.1578,0.0001437,15.29380617,476.67751317864986,478.6478700100133,1 46075U 20055BA  26112.69273718  .00002060  00000+0  83632-4 0  9992,2 46075  53.1578 256.6358 0001437  83.2583 276.8581 15.29380617315976
STARLINK-1552,46076,53.1606,9.92e-05,15.30195864,474.5475650472763,475.9072725479655,1 46076U 20055BB  26112.12506027  .00001686  00000+0  69055-4 0  9999,2 46076  53.1606 259.2212 0000992  80.7165 279.3948 15.30195864315874
STARLINK-1559,46077,53.0243,9.06e-05,15.33981316,463.32804742666394,464.56783321785133,1 46077U 20055BC  26112.59966086  .00034454  00000+0  10397-2 0  9998,2 46077  53.0243 228.8300 0000906 243.4529 116.6379 15.33981316316317
STARLINK-1566,46079,53.1583,0.0001087,15.29370941,476.9463797711751,478.4368369106278,1 46079U 20055BE  26112.66620500  .00007002  00000+0  25463-3 0  9996,2 46079  53.1583 256.7124 0001087  80.6950 279.4173 15.29370941315973
STARLINK-1568,46080,53.0587,0.0003882,15.5015258,413.6425946726622,418.91778017697743,1 46080U 20055BF  26112.71028819  .00029195  00000+0  51538-3 0  9998,2 46080  53.0587 182.3297 0003882 308.8232  51.2429 15.50152580317014
STARLINK-1578,46082,53.1481,9.04e-05,15.29405641,476.9681511993458,478.2076662628442,1 46082U 20055BH  26112.72352450  .00013542  00000+0  48004-3 0  9995,2 46082  53.1481 256.8420 0000904 110.7671 249.3426 15.29405641315979
STARLINK-1579,46083,53.1609,4.96e-05,15.30251824,474.7204180757617,475.4002552515585,1 46083U 20055BJ  26112.72236815  .00021923  00000+0  74892-3 0  9998,2 46083  53.1609 256.5020 0000496 111.7770 248.3284 15.30251824315977
STARLINK-1593,46119,53.0353,0.0003682,15.97863543,277.89568623670584,282.7989941048081,1 46119U 20057C   26112.91668980  .00461314  10010-3  99710-3 0  9997,2 46119  53.0353  46.9516 0003682 137.6204  17.9997 15.97863543  5968
STARLINK-1621,46127,53.0347,0.0004779,16.08766353,247.06197567405343,253.39736853925206,1 46127U 20057L   26112.89043296  .00937595  50354-3  10562-2 0  9991,2 46127  53.0347  18.8215 0004779 219.4461 140.6224 16.08766353314117
STARLINK-1622,46128,53.0208,0.0001122,15.72260491,351.6829189868986,353.1932600369855,1 46128U 20057M   26111.90426286  .00095407  00000+0  70393-3 0  9992,2 46128  53.0208  10.9389 0001122  37.1740 322.9354 15.72260491314147
STARLINK-1623,46129,53.0442,0.0002229,15.61861122,380.7743447869216,383.7881392392119,1 46129U 20057N   26112.08347556  .00063988  00000+0  72376-3 0  9997,2 46129  53.0442  45.4332 0002229  41.1801 318.9380 15.61861122313689
STARLINK-1624,46130,53.0376,0.0006992,15.83924639,314.6715187065229,324.0372906868506,1 46130U 20057P   26112.91668980  .00176409  00000+0  76122-3 0  9994,2 46130  53.0376  11.8934 0006992 140.7204  91.3294 15.83924639  6059
STARLINK-1596,46141,53.0396,0.0001878,15.517887,410.22848203744434,412.77867103799144,1 46141U 20057AA  26112.12398450  .00070490  00000+0  11576-2 0  9995,2 46141  53.0396  22.8478 0001878 126.6371 233.4810 15.51788700314006
STARLINK-1597,46142,53.045,0.0004797,15.6578751,367.73729251984514,374.21239042055186,1 46142U 20057AB  26112.62946778  .00061055  00000+0  59206-3 0  9993,2 46142  53.0450  82.4413 0004797  19.6837 340.4362 15.65787510313205
